$$SOE
2460721.500000000, A.D. 2025-Feb-15 00:00:00.0000, -3.140582135437641E+08, -1.700470404879484E+08, -1.802812122223191E+06,
2460728.500000000, A.D. 2025-Feb-22 00:00:00.0000, -3.068105554438798E+08, -1.786677571357467E+08, -1.377158503757723E+06,
2460735.500000000, A.D. 2025-Mar-01 00:00:00.0000, -2.992301339246941E+08, -1.870947076557041E+08, -9.500123931903988E+05,
2460742.500000000, A.D. 2025-Mar-08 00:00:00.0000, -2.913192394370031E+08, -1.953150426712209E+08, -5.218186410428584E+05,
2460749.500000000, A.D. 2025-Mar-15 00:00:00.0000, -2.830805911862181E+08, -2.033156469211333E+08, -9.303977020238340E+04,
2460756.500000000, A.D. 2025-Mar-22 00:00:00.0000, -2.745173697762081E+08, -2.110831413825915E+08, 3.358436665460616E+05,
2460763.500000000, A.D. 2025-Mar-29 00:00:00.0000, -2.656332502217615E+08, -2.186038894819290E+08, 7.643324364906698E+05,
2460770.500000000, A.D. 2025-Apr-05 00:00:00.0000, -2.564324350180463E+08, -2.258640045057043E+08, 1.191907918415725E+06,
2460777.500000000, A.D. 2025-Apr-12 00:00:00.0000, -2.469196891863550E+08, -2.328493583759941E+08, 1.618031529574111E+06,
2460784.500000000, A.D. 2025-Apr-19 00:00:00.0000, -2.371003774504893E+08, -2.395455929583002E+08, 2.042144243637860E+06,
2460791.500000000, A.D. 2025-Apr-26 00:00:00.0000, -2.269805032076983E+08, -2.459381344138456E+08, 2.463666169440806E+06,
2460798.500000000, A.D. 2025-May-03 00:00:00.0000, -2.165667490803191E+08, -2.520122109106127E+08, 2.881996193970427E+06,
2460805.500000000, A.D. 2025-May-10 00:00:00.0000, -2.058665188806382E+08, -2.577528740447223E+08, 3.296511701039657E+06,
2460812.500000000, A.D. 2025-May-17 00:00:00.0000, -1.948879807725817E+08, -2.631450243988748E+08, 3.706568373490736E+06,
2460819.500000000, A.D. 2025-May-24 00:00:00.0000, -1.836401112308145E+08, -2.681734416969667E+08, 4.111500074943006E+06,
2460826.500000000, A.D. 2025-May-31 00:00:00.0000, -1.721327390975642E+08, -2.728228196598624E+08, 4.510618816921502E+06,
2460833.500000000, A.D. 2025-Jun-07 00:00:00.0000, -1.603765897882156E+08, -2.770778047797238E+08, 4.903214967565119E+06,
2460840.500000000, A.D. 2025-Jun-14 00:00:00.0000, -1.483833315837392E+08, -2.809230401038895E+08, 5.288557886939451E+06,
2460847.500000000, A.D. 2025-Jun-21 00:00:00.0000, -1.361656222857381E+08, -2.843432177214396E+08, 5.665896634014502E+06,
2460854.500000000, A.D. 2025-Jun-28 00:00:00.0000, -1.237371525147715E+08, -2.873231385966319E+08, 6.034460628337070E+06,
2460861.500000000, A.D. 2025-Jul-05 00:00:00.0000, -1.111126864852527E+08, -2.898477779694207E+08, 6.393460609127581E+06,
2460868.500000000, A.D. 2025-Jul-12 00:00:00.0000, -9.830810066305277E+07, -2.919023574558228E+08, 6.742089963517040E+06,
2460875.500000000, A.D. 2025-Jul-19 00:00:00.0000, -8.534041922542462E+07, -2.934724246849187E+08, 7.079526388033450E+06,
2460882.500000000, A.D. 2025-Jul-26 00:00:00.0000, -7.222784511385192E+07, -2.945439407058361E+08, 7.404933887200102E+06,
2460889.500000000, A.D. 2025-Aug-02 00:00:00.0000, -5.898978550759654E+07, -2.951033752160161E+08, 7.717465131328270E+06,
2460896.500000000, A.D. 2025-Aug-09 00:00:00.0000, -4.564687048908490E+07, -2.951378095723582E+08, 8.016264195053339E+06,
2460903.500000000, A.D. 2025-Aug-16 00:00:00.0000, -3.222096353267154E+07, -2.946350474397752E+08, 8.300469687236220E+06,
2460910.500000000, A.D. 2025-Aug-23 00:00:00.0000, -1.873516216038305E+07, -2.935837326651884E+08, 8.569218265773073E+06,
2460917.500000000, A.D. 2025-Aug-30 00:00:00.0000, -5.213787020047045E+06, -2.919734730531388E+08, 8.821648578974530E+06,
2460924.500000000, A.D. 2025-Sep-06 00:00:00.0000, 8.317640634152239E+06, -2.897949681916894E+08, 9.056905851716399E+06,
2460931.500000000, A.D. 2025-Sep-13 00:00:00.0000, 2.183243281261310E+07, -2.870401426938875E+08, 9.274147064126924E+06,
2460938.500000000, A.D. 2025-Sep-20 00:00:00.0000, 3.530278465364154E+07, -2.837022851008941E+08, 9.472546275487572E+06,
2460945.500000000, A.D. 2025-Sep-27 00:00:00.0000, 4.869984259299756E+07, -2.797761876471190E+08, 9.651300227010265E+06,
2460952.500000000, A.D. 2025-Oct-04 00:00:00.0000, 6.199378990571919E+07, -2.752582843609345E+08, 9.809634416347861E+06,
2460959.500000000, A.D. 2025-Oct-11 00:00:00.0000, 7.515395009407447E+07, -2.701467861639779E+08, 9.946809550532892E+06,
2460966.500000000, A.D. 2025-Oct-18 00:00:00.0000, 8.814890894953899E+07, -2.644418106945771E+08, 1.006212826337190E+07,
2460973.500000000, A.D. 2025-Oct-25 00:00:00.0000, 1.009466555990729E+08, -2.581455040638692E+08, 1.015494200437705E+07,
2460980.500000000, A.D. 2025-Nov-01 00:00:00.0000, 1.135147423063971E+08, -2.512621515685737E+08, 1.022465799980539E+07,
2460987.500000000, A.D. 2025-Nov-08 00:00:00.0000, 1.258204623005480E+08, -2.437982743222335E+08, 1.027074616761212E+07,
2460994.500000000, A.D. 2025-Nov-15 00:00:00.0000, 1.378310444814130E+08, -2.357627087809096E+08, 1.029274584376414E+07,
2461001.500000000, A.D. 2025-Nov-22 00:00:00.0000, 1.495138635364798E+08, -2.271666659567569E+08, 1.029027216879183E+07,
2461008.500000000, A.D. 2025-Nov-29 00:00:00.0000, 1.608366628637409E+08, -2.180237664029536E+08, 1.026302210271241E+07,
2461015.500000000, A.D. 2025-Dec-06 00:00:00.0000, 1.717677850072518E+08, -2.083500486437190E+08, 1.021078012329631E+07,
2461022.500000000, A.D. 2025-Dec-13 00:00:00.0000, 1.822764065086160E+08, -1.981639523974945E+08, 1.013342315050682E+07,
2461029.500000000, A.D. 2025-Dec-20 00:00:00.0000, 1.923327767043794E+08, -1.874862741123055E+08, 1.003092432634908E+07,
2461036.500000000, A.D. 2025-Dec-27 00:00:00.0000, 2.019084551028754E+08, -1.763400914371171E+08, 9.903355840800919E+06,
2461043.500000000, A.D. 2026-Jan-03 00:00:00.0000, 2.109765413849317E+08, -1.647506572073856E+08, 9.750890786467433E+06,
2461050.500000000, A.D. 2026-Jan-10 00:00:00.0000, 2.195118935897734E+08, -1.527452643817277E+08, 9.573803898800284E+06,
2461057.500000000, A.D. 2026-Jan-17 00:00:00.0000, 2.274913302839130E+08, -1.403530835929265E+08, 9.372471103357069E+06,
2461064.500000000, A.D. 2026-Jan-24 00:00:00.0000, 2.348938126374570E+08, -1.276049756573545E+08, 9.147367846394226E+06,
2461071.500000000, A.D. 2026-Jan-31 00:00:00.0000, 2.417006027162350E+08, -1.145332821549957E+08, 8.899066220052741E+06,
2461078.500000000, A.D. 2026-Feb-07 00:00:00.0000, 2.478953949080686E+08, -1.011715978818933E+08, 8.628230915805776E+06,
2461085.500000000, A.D. 2026-Feb-14 00:00:00.0000, 2.534644182744561E+08, -8.755452942956418E+07, 8.335614051134702E+06,
2461092.500000000, A.D. 2026-Feb-21 00:00:00.0000, 2.583965085446983E+08, -7.371744387749669E+07, 8.022048976971507E+06,
2461099.500000000, A.D. 2026-Feb-28 00:00:00.0000, 2.626831478777392E+08, -5.969621118422568E+07, 7.688443386624562E+06,
2461106.500000000, A.D. 2026-Mar-07 00:00:00.0000, 2.663184704230290E+08, -4.552694699572768E+07, 7.335771907502176E+06,
2461113.500000000, A.D. 2026-Mar-14 00:00:00.0000, 2.692992373633512E+08, -3.124576282636306E+07, 6.965067896540501E+06,
2461120.500000000, A.D. 2026-Mar-21 00:00:00.0000, 2.716247848761169E+08, -1.688852502749149E+07, 6.577414685340819E+06,
2461127.500000000, A.D. 2026-Mar-28 00:00:00.0000, 2.732969453072671E+08, -2.490625381937376E+06, 6.173936714498909E+06,
2461134.500000000, A.D. 2026-Apr-04 00:00:00.0000, 2.743199437877400E+08, 1.191323240105734E+07, 5.755790697122745E+06,
2461141.500000000, A.D. 2026-Apr-11 00:00:00.0000, 2.747002738022459E+08, 2.628922725130711E+07, 5.324156909744788E+06,
2461148.500000000, A.D. 2026-Apr-18 00:00:00.0000, 2.744465553718818E+08, 4.060459434151454E+07, 4.880230734398333E+06,
2461155.500000000, A.D. 2026-Apr-25 00:00:00.0000, 2.735693795275865E+08, 5.482777639600679E+07, 4.425214570889864E+06,
2461162.500000000, A.D. 2026-May-02 00:00:00.0000, 2.720811427361170E+08, 6.892855197083436E+07, 3.960310216820709E+06,
2461169.500000000, A.D. 2026-May-09 00:00:00.0000, 2.699958749206609E+08, 8.287814053236425E+07, 3.486711780625250E+06,
2461176.500000000, A.D. 2026-May-16 00:00:00.0000, 2.673290647598757E+08, 9.664928489428315E+07, 3.005599164487690E+06,
2461183.500000000, A.D. 2026-May-23 00:00:00.0000, 2.640974853229867E+08, 1.102163129093526E+08, 2.518132234661624E+06,
2461190.500000000, A.D. 2026-May-30 00:00:00.0000, 2.603190206282163E+08, 1.235551799980785E+08, 2.025445918555021E+06,
2461197.500000000, A.D. 2026-Jun-06 00:00:00.0000, 2.560124951316118E+08, 1.366434907908227E+08, 1.528645996666476E+06,
2461204.500000000, A.D. 2026-Jun-13 00:00:00.0000, 2.511975117406543E+08, 1.494605018147726E+08, 1.028805257086352E+06,
2461211.500000000, A.D. 2026-Jun-20 00:00:00.0000, 2.458942993781363E+08, 1.619871100142097E+08, 5.269602734145373E+05,
2461218.500000000, A.D. 2026-Jun-27 00:00:00.0000, 2.401235695638925E+08, 1.742058286897604E+08, 2.410890139371902E+04,
2461225.500000000, A.D. 2026-Jul-04 00:00:00.0000, 2.339063828429335E+08, 1.861007520033605E+08, -4.787916093306690E+05,
2461232.500000000, A.D. 2026-Jul-11 00:00:00.0000, 2.272640258329495E+08, 1.976575097856462E+08, -9.808259680790603E+05,
2461239.500000000, A.D. 2026-Jul-18 00:00:00.0000, 2.202178992300242E+08, 2.088632144496672E+08, -1.481121715963393E+06,
2461246.500000000, A.D. 2026-Jul-25 00:00:00.0000, 2.127894168096396E+08, 2.197064016730961E+08, -1.978849671084374E+06,
2461253.500000000, A.D. 2026-Aug-01 00:00:00.0000, 2.049999152894581E+08, 2.301769663222507E+08, -2.473224004884109E+06,
2461260.500000000, A.D. 2026-Aug-08 00:00:00.0000, 1.968705749310646E+08, 2.402660949545659E+08, -2.963502021665692E+06,
2461267.500000000, A.D. 2026-Aug-15 00:00:00.0000, 1.884223508391258E+08, 2.499661965677792E+08, -3.448983690366536E+06,
2461274.500000000, A.D. 2026-Aug-22 00:00:00.0000, 1.796759136492638E+08, 2.592708338715327E+08, -3.929010804795548E+06,
2461281.500000000, A.D. 2026-Aug-29 00:00:00.0000, 1.706515966909193E+08, 2.681746546095958E+08, -4.402965715466037E+06,
2461288.500000000, A.D. 2026-Sep-05 00:00:00.0000, 1.613693511031499E+08, 2.766733208447106E+08, -4.870270099917784E+06,
$$EOE